start=new Date('2023-06-24T00:00:00.000Z').valueOf();
sats=[{"DECAY_DATE":null,"CENTER_NAME":"EARTH","COUNTRY_CODE":"US","SITE":"AFETR","TIME_SYSTEM":"UTC","OBJECT_NAME":"STARLINK-1806","ECCENTRICITY":"0.00011060","ELEMENT_SET_NO":"999","SEMIMAJOR_AXIS":"6925.319","INCLINATION":"53.0531","MEAN_MOTION":"15.06409555","REV_AT_EPOCH":"13231","PERIOD":"95.592","MEAN_ANOMALY":"287.9445","BSTAR":"0.00051510000000","OBJECT_TYPE":"PAYLOAD","RA_OF_ASC_NODE":"136.3770","ARG_OF_PERICENTER":"72.1665","NORAD_CAT_ID":"47549","MEAN_MOTION_DOT":"0.00007401","MEAN_ELEMENT_THEORY":"SGP4","TLE_LINE1":"1 47549U 21009B   23174.58379488  .00007401  00000-0  51510-3 0  9997","EPHEMERIS_TYPE":"0","CLASSIFICATION_TYPE":"U","RCS_SIZE":"LARGE","EPOCH":"2023-06-23T14:00:39.877632","REF_FRAME":"TEME","GP_ID":"234509671","PERIAPSIS":"546.418","LAUNCH_DATE":"2021-02-04","TLE_LINE2":"2 47549  53.0531 136.3770 0001106  72.1665 287.9445 15.06409555132319","APOAPSIS":"547.950","FILE":"3940994","OBJECT_ID":"2021-009B","MEAN_MOTION_DDOT":"0.0000000000000"},{"OBJECT_TYPE":"PAYLOAD","BSTAR":"0.00041075000000","PERIOD":"95.592","MEAN_ANOMALY":"235.5502","REV_AT_EPOCH":"13245","SEMIMAJOR_AXIS":"6925.353","INCLINATION":"53.0536","ELEMENT_SET_NO":"999","MEAN_MOTION":"15.06398685","OBJECT_NAME":"STARLINK-1909","ECCENTRICITY":"0.00013590","TIME_SYSTEM":"UTC","SITE":"AFETR","COUNTRY_CODE":"US","DECAY_DATE":null,"CENTER_NAME":"EARTH","OBJECT_ID":"2021-009C","MEAN_MOTION_DDOT":"0.0000000000000","TLE_LINE2":"2 47550  53.0536 126.3193 0001359 124.5615 235.5502 15.06398685132450","APOAPSIS":"548.159","FILE":"3940994","LAUNCH_DATE":"2021-02-04","PERIAPSIS":"546.276","GP_ID":"234510169","REF_FRAME":"TEME","EPOCH":"2023-06-23T14:17:55.066272","RCS_SIZE":"LARGE","TLE_LINE1":"1 47550U 21009C   23174.59577623  .00005842  00000-0  41075-3 0  9993","MEAN_ELEMENT_THEORY":"SGP4","EPHEMERIS_TYPE":"0","CLASSIFICATION_TYPE":"U","MEAN_MOTION_DOT":"0.00005842","NORAD_CAT_ID":"47550","ARG_OF_PERICENTER":"124.5615","RA_OF_ASC_NODE":"126.3193"},{"SITE":"AFETR","TIME_SYSTEM":"UTC","ECCENTRICITY":"0.00013420","OBJECT_NAME":"STARLINK-1938","CENTER_NAME":"EARTH","DECAY_DATE":null,"COUNTRY_CODE":"US","BSTAR":"0.00002935100000","OBJECT_TYPE":"PAYLOAD","ELEMENT_SET_NO":"999","SEMIMAJOR_AXIS":"6925.355","MEAN_MOTION":"15.06397871","INCLINATION":"53.0559","REV_AT_EPOCH":"13218","MEAN_ANOMALY":"263.2290","PERIOD":"95.592","CLASSIFICATION_TYPE":"U","MEAN_ELEMENT_THEORY":"SGP4","TLE_LINE1":"1 47551U 21009D   23174.65658805  .00000156  00000-0  29351-4 0  9990","EPHEMERIS_TYPE":"0","RCS_SIZE":"LARGE","EPOCH":"2023-06-23T15:45:29.207520","ARG_OF_PERICENTER":"96.8851","RA_OF_ASC_NODE":"146.0489","MEAN_MOTION_DOT":"0.00000156","NORAD_CAT_ID":"47551","APOAPSIS":"548.149","FILE":"3940994","TLE_LINE2":"2 47551  53.0559 146.0489 0001342  96.8851 263.2290 15.06397871132186","MEAN_MOTION_DDOT":"0.0000000000000","OBJECT_ID":"2021-009D","REF_FRAME":"TEME","GP_ID":"234510166","LAUNCH_DATE":"2021-02-04","PERIAPSIS":"546.291"},{"BSTAR":"0.00052059000000","OBJECT_TYPE":"PAYLOAD","INCLINATION":"53.0523","SEMIMAJOR_AXIS":"6925.342","ELEMENT_SET_NO":"999","MEAN_MOTION":"15.06402298","REV_AT_EPOCH":"13230","PERIOD":"95.592","MEAN_ANOMALY":"261.9824","SITE":"AFETR","TIME_SYSTEM":"UTC","ECCENTRICITY":"0.00011920","OBJECT_NAME":"STARLINK-1940","CENTER_NAME":"EARTH","DECAY_DATE":null,"COUNTRY_CODE":"US","FILE":"3941003","APOAPSIS":"548.032","TLE_LINE2":"2 47552  53.0523 136.3277 0001192  98.1300 261.9824 15.06402298132304","MEAN_MOTION_DDOT":"0.0000000000000","OBJECT_ID":"2021-009E","REF_FRAME":"TEME","GP_ID":"234510177","LAUNCH_DATE":"2021-02-04","PERIAPSIS":"546.381","CLASSIFICATION_TYPE":"U","EPHEMERIS_TYPE":"0","TLE_LINE1":"1 47552U 21009E   23174.59484775  .00007482  00000-0  52059-3 0  9996","MEAN_ELEMENT_THEORY":"SGP4","RCS_SIZE":"LARGE","EPOCH":"2023-06-23T14:16:34.845600","ARG_OF_PERICENTER":"98.1300","RA_OF_ASC_NODE":"136.3277","MEAN_MOTION_DOT":"0.00007482","NORAD_CAT_ID":"47552"},{"MEAN_MOTION_DDOT":"0.0000000000000","OBJECT_ID":"2021-009G","FILE":"3941003","APOAPSIS":"548.172","TLE_LINE2":"2 47554  53.0544 156.0049 0001383  86.8025 273.3122 15.06399818132047","REF_FRAME":"TEME","PERIAPSIS":"546.256","LAUNCH_DATE":"2021-02-04","GP_ID":"234509680","RCS_SIZE":"LARGE","CLASSIFICATION_TYPE":"U","MEAN_ELEMENT_THEORY":"SGP4","TLE_LINE1":"1 47554U 21009G   23174.66672622  .00000852  00000-0  76067-4 0  9996","EPHEMERIS_TYPE":"0","EPOCH":"2023-06-23T16:00:05.145408","ARG_OF_PERICENTER":"86.8025","RA_OF_ASC_NODE":"156.0049","MEAN_MOTION_DOT":"0.00000852","NORAD_CAT_ID":"47554","OBJECT_TYPE":"PAYLOAD","BSTAR":"0.00007606700000","INCLINATION":"53.0544","SEMIMAJOR_AXIS":"6925.349","ELEMENT_SET_NO":"999","MEAN_MOTION":"15.06399818","PERIOD":"95.592","MEAN_ANOMALY":"273.3122","REV_AT_EPOCH":"13204","SITE":"AFETR","ECCENTRICITY":"0.00013830","OBJECT_NAME":"STARLINK-1953","TIME_SYSTEM":"UTC","COUNTRY_CODE":"US","CENTER_NAME":"EARTH","DECAY_DATE":null},{"EPHEMERIS_TYPE":"0","TLE_LINE1":"1 47555U 21009H   23174.64184477  .00000702  00000-0  66036-4 0  9990","MEAN_ELEMENT_THEORY":"SGP4","CLASSIFICATION_TYPE":"U","RCS_SIZE":"LARGE","EPOCH":"2023-06-23T15:24:15.388128","RA_OF_ASC_NODE":"146.1175","ARG_OF_PERICENTER":"91.5829","MEAN_MOTION_DOT":"0.00000702","NORAD_CAT_ID":"47555","TLE_LINE2":"2 47555  53.0531 146.1175 0001069  91.5829 268.5283 15.06396360132188","FILE":"3940925","APOAPSIS":"547.965","OBJECT_ID":"2021-009H","MEAN_MOTION_DDOT":"0.0000000000000","REF_FRAME":"TEME","GP_ID":"234507996","LAUNCH_DATE":"2021-02-04","PERIAPSIS":"546.484","SITE":"AFETR","TIME_SYSTEM":"UTC","OBJECT_NAME":"STARLINK-1954","ECCENTRICITY":"0.00010690","DECAY_DATE":null,"CENTER_NAME":"EARTH","COUNTRY_CODE":"US","BSTAR":"0.00006603600000","OBJECT_TYPE":"PAYLOAD","ELEMENT_SET_NO":"999","SEMIMAJOR_AXIS":"6925.360","INCLINATION":"53.0531","MEAN_MOTION":"15.06396360","REV_AT_EPOCH":"13218","MEAN_ANOMALY":"268.5283","PERIOD":"95.592"},{"BSTAR":"-0.00002247800000","OBJECT_TYPE":"PAYLOAD","INCLINATION":"53.0530","SEMIMAJOR_AXIS":"6925.371","ELEMENT_SET_NO":"999","MEAN_MOTION":"15.06392762","REV_AT_EPOCH":"13189","PERIOD":"95.593","MEAN_ANOMALY":"274.9046","SITE":"AFETR","TIME_SYSTEM":"UTC","OBJECT_NAME":"STARLINK-1955","ECCENTRICITY":"0.00019640","DECAY_DATE":null,"CENTER_NAME":"EARTH","COUNTRY_CODE":"US","TLE_LINE2":"2 47556  53.0530 165.9591 0001964  85.2167 274.9046 15.06392762131895","FILE":"3940925","APOAPSIS":"548.596","OBJECT_ID":"2021-009J","MEAN_MOTION_DDOT":"0.0000000000000","REF_FRAME":"TEME","GP_ID":"234507999","PERIAPSIS":"545.876","LAUNCH_DATE":"2021-02-04","TLE_LINE1":"1 47556U 21009J   23174.67687520 -.00000616  00000-0 -22478-4 0  9999","MEAN_ELEMENT_THEORY":"SGP4","EPHEMERIS_TYPE":"0","CLASSIFICATION_TYPE":"U","RCS_SIZE":"LARGE","EPOCH":"2023-06-23T16:14:42.017280","ARG_OF_PERICENTER":"85.2167","RA_OF_ASC_NODE":"165.9591","MEAN_MOTION_DOT":"-0.00000616","NORAD_CAT_ID":"47556"},{"SEMIMAJOR_AXIS":"6925.349","ELEMENT_SET_NO":"999","MEAN_MOTION":"15.06399858","INCLINATION":"53.0529","REV_AT_EPOCH":"13190","MEAN_ANOMALY":"276.2177","PERIOD":"95.592","BSTAR":"0.00006267400000","OBJECT_TYPE":"PAYLOAD","DECAY_DATE":null,"CENTER_NAME":"EARTH","COUNTRY_CODE":"US","SITE":"AFETR","TIME_SYSTEM":"UTC","OBJECT_NAME":"STARLINK-1956","ECCENTRICITY":"0.00011030","REF_FRAME":"TEME","GP_ID":"234507997","PERIAPSIS":"546.450","LAUNCH_DATE":"2021-02-04","TLE_LINE2":"2 47557  53.0529 165.8271 0001103  83.8938 276.2177 15.06399858131908","APOAPSIS":"547.978","FILE":"3940925","OBJECT_ID":"2021-009K","MEAN_MOTION_DDOT":"0.0000000000000","RA_OF_ASC_NODE":"165.8271","ARG_OF_PERICENTER":"83.8938","MEAN_MOTION_DOT":"0.00000652","NORAD_CAT_ID":"47557","EPHEMERIS_TYPE":"0","TLE_LINE1":"1 47557U 21009K   23174.70635111  .00000652  00000-0  62674-4 0  9993","MEAN_ELEMENT_THEORY":"SGP4","CLASSIFICATION_TYPE":"U","RCS_SIZE":"LARGE","EPOCH":"2023-06-23T16:57:08.735904"},{"OBJECT_TYPE":"PAYLOAD","BSTAR":"0.00021394000000","MEAN_ANOMALY":"269.3871","PERIOD":"95.592","REV_AT_EPOCH":"13230","ELEMENT_SET_NO":"999","SEMIMAJOR_AXIS":"6925.358","INCLINATION":"53.0530","MEAN_MOTION":"15.06396936","OBJECT_NAME":"STARLINK-1957","ECCENTRICITY":"0.00012010","TIME_SYSTEM":"UTC","SITE":"AFETR","COUNTRY_CODE":"US","DECAY_DATE":null,"CENTER_NAME":"EARTH","OBJECT_ID":"2021-009L","MEAN_MOTION_DDOT":"0.0000000000000","TLE_LINE2":"2 47558  53.0530 136.2064 0001201  90.7256 269.3871 15.06396936132305","FILE":"3940925","APOAPSIS":"548.055","LAUNCH_DATE":"2021-02-04","PERIAPSIS":"546.391","GP_ID":"234507998","REF_FRAME":"TEME","EPOCH":"2023-06-23T14:53:44.496096","RCS_SIZE":"LARGE","EPHEMERIS_TYPE":"0","TLE_LINE1":"1 47558U 21009L   23174.62065389  .00002906  00000-0  21394-3 0  9996","MEAN_ELEMENT_THEORY":"SGP4","CLASSIFICATION_TYPE":"U","NORAD_CAT_ID":"47558","MEAN_MOTION_DOT":"0.00002906","RA_OF_ASC_NODE":"136.2064","ARG_OF_PERICENTER":"90.7256"},{"TLE_LINE2":"2 47559  53.0538 126.3707 0001472  92.8541 267.2617 15.06402428132453","FILE":"3940925","APOAPSIS":"548.226","OBJECT_ID":"2021-009M","MEAN_MOTION_DDOT":"0.0000000000000","REF_FRAME":"TEME","GP_ID":"234508496","LAUNCH_DATE":"2021-02-04","PERIAPSIS":"546.187","TLE_LINE1":"1 47559U 21009M   23174.58471693  .00003836  00000-0  27626-3 0  9998","MEAN_ELEMENT_THEORY":"SGP4","EPHEMERIS_TYPE":"0","CLASSIFICATION_TYPE":"U","RCS_SIZE":"LARGE","EPOCH":"2023-06-23T14:01:59.542752","ARG_OF_PERICENTER":"92.8541","RA_OF_ASC_NODE":"126.3707","NORAD_CAT_ID":"47559","MEAN_MOTION_DOT":"0.00003836","BSTAR":"0.00027626000000","OBJECT_TYPE":"PAYLOAD","ELEMENT_SET_NO":"999","SEMIMAJOR_AXIS":"6925.341","MEAN_MOTION":"15.06402428","INCLINATION":"53.0538","REV_AT_EPOCH":"13245","MEAN_ANOMALY":"267.2617","PERIOD":"95.592","SITE":"AFETR","TIME_SYSTEM":"UTC","OBJECT_NAME":"STARLINK-1958","ECCENTRICITY":"0.00014720","DECAY_DATE":null,"CENTER_NAME":"EARTH","COUNTRY_CODE":"US"}];
